IRIDIUM 26              
1 24903U 97043A   25327.27554374  .00000460  00000+0  14758-3 0  9994
2 24903  86.3975  43.7416 0001951  94.5979 265.5441 14.37305398479596
IRIDIUM 22              
1 24907U 97043E   25327.26789355  .00000409  00000+0  13398-3 0  9998
2 24907  86.3979  47.4211 0002097  97.9715 262.1720 14.36101514479603
DUMMY MASS 1            
1 24925U 97048A   25327.29263779  .00000527  00000+0  55546-4 0  9996
2 24925  86.3353  61.7037 0004750 317.4829  42.6027 14.87157053528777
DUMMY MASS 2            
1 24926U 97048B   25327.34865321  .00000527  00000+0  55866-4 0  9999
2 24926  86.3353  63.3153 0005904 330.2917  29.7972 14.86907776528553
IRIDIUM 29              
1 24944U 97051A   25327.37260242  .00000547  00000+0  17920-3 0  9997
2 24944  86.3949  77.0742 0002262  96.8997 263.2458 14.36636890476127
IRIDIUM 33              
1 24946U 97051C   25327.39149984  .00000411  00000+0  13749-3 0  9995
2 24946  86.3865  76.3418 0005799 280.1833  79.8709 14.35016381475577
IRIDIUM 28              
1 24948U 97051E   25327.38493924  .00000513  00000+0  16481-3 0  9991
2 24948  86.3957  74.4931 0001539  92.7655 267.3718 14.37537834476711
IRIDIUM 36              
1 24967U 97056C   25327.39299789  .00000507  00000+0  16190-3 0  9991
2 24967  86.3943 106.1195 0001860  97.8007 262.3402 14.37757916475096
